norad_id,name,regime,epoch,line1,line2,inclination,eccentricity,mean_motion,raan,arg_pericenter,mean_anomaly
20083,RADUGA 1-1,EGO,90049.45237142,1 20083U 89048  A 90049.45237142  .00000149 +00000-0 +99999-4 0 02459\,2 20083 000.8497 273.9978 0004697 032.8698 053.0652 01.00264108002421,0.8497,0.0004697,1.00264108,273.9978,32.8698,53.0652
20083,RADUGA 1-1,EGO,90050.44971573,1 20083U 89048  A 90050.44971573  .00000182 +00000-0 +00000-4 0 02466\,2 20083 000.8440 273.8687 0004710 033.8339 052.2299 01.00264533002435,0.844,0.000471,1.00264533,273.8687,33.8339,52.2299
20083,RADUGA 1-1,EGO,90052.44444053,1 20083U 89048  A 90052.44444053  .00000149 +00000-0 +99999-4 0 02486\,2 20083 000.8442 274.0057 0004536 034.4547 051.4893 01.00265347002452,0.8442,0.0004536,1.00265347,274.0057,34.4547,51.4893
20083,RADUGA 1-1,EGO,90054.43905758,1 20083U 89048  A 90054.43905758  .00000183 +00000-0 +00000-4 0 02495\,2 20083 000.8435 274.1658 0004496 033.1837 052.5822 01.00266088002474,0.8435,0.0004496,1.00266088,274.1658,33.1837,52.5822
20083,RADUGA 1-1,EGO,90055.43638929,1 20083U 89048  A 90055.43638929  .00000149 +00000-0 +99999-4 0 02508\,2 20083 000.8419 274.1826 0004517 031.0889 054.6649 01.00266503002484,0.8419,0.0004517,1.00266503,274.1826,31.0889,54.6649
20083,RADUGA 1-1,EGO,90056.43370297,1 20083U 89048  A 90056.43370297  .00000183 +00000-0 +00000-4 0 02514\,2 20083 000.8394 274.1660 0004481 031.3258 054.4419 01.00266918002499,0.8394,0.0004481,1.00266918,274.166,31.3258,54.4419
20083,RADUGA 1-1,EGO,90057.43102394,1 20083U 89048  A 90057.43102394  .00000183 +00000-0 +00000-4 0 02527\,2 20083 000.8435 273.9055 0004326 030.7820 055.2463 01.00267276002504,0.8435,0.0004326,1.00267276,273.9055,30.782,55.2463
20083,RADUGA 1-1,EGO,90057.43103269,1 20083U 89048  A 90057.43103269  .00000149 +00000-0 +99999-4 0 02537\,2 20083 000.8449 273.9714 0004100 032.7835 053.1750 01.00267054002509,0.8449,0.00041,1.00267054,273.9714,32.7835,53.175
20083,RADUGA 1-1,EGO,90058.42837708,1 20083U 89048  A 90058.42837708  .00000183 +00000-0 +00000-4 0 02543\,2 20083 000.8368 274.2270 0004422 031.0038 054.7153 01.00267656002517,0.8368,0.0004422,1.00267656,274.227,31.0038,54.7153
20083,RADUGA 1-1,EGO,90059.42566115,1 20083U 89048  A 90059.42566115  .00000183 +00000-0 +00000-4 0 02556\,2 20083 000.8357 274.2322 0004314 032.1725 053.4980 01.00267431002524,0.8357,0.0004314,1.00267431,274.2322,32.1725,53.498
20083,RADUGA 1-1,EGO,90060.42307023,1 20083U 89048  A 90060.42307023  .00000150 +00000-0 +99999-4 0 02569\,2 20083 000.8329 274.2103 0004375 031.3857 054.3454 01.00267892002532,0.8329,0.0004375,1.00267892,274.2103,31.3857,54.3454
20083,RADUGA 1-1,EGO,90061.42036020,1 20083U 89048  A 90061.42036020  .00000150 +00000-0 +99999-4 0 02577\,2 20083 000.8320 273.7646 0004340 030.6646 055.4840 01.00268107002541,0.832,0.000434,1.00268107,273.7646,30.6646,55.484
20083,RADUGA 1-1,EGO,90062.41771756,1 20083U 89048  A 90062.41771756  .00000150 +00000-0 +99999-4 0 02580\,2 20083 000.8281 274.1265 0004182 034.6491 051.1482 01.00268253002553,0.8281,0.0004182,1.00268253,274.1265,34.6491,51.1482
20083,RADUGA 1-1,EGO,90062.41774801,1 20083U 89048  A 90062.41774801  .00000150 +00000-0 +99999-4 0 02607\,2 20083 000.8281 274.1074 0004208 033.7704 052.0579 01.00268254002555,0.8281,0.0004208,1.00268254,274.1074,33.7704,52.0579
20083,RADUGA 1-1,EGO,90062.41775218,1 20083U 89048  A 90062.41775218  .00000150 +00000-0 +99999-4 0 02598\,2 20083 000.8280 274.1061 0004207 033.7787 052.0523 01.00268254002559,0.828,0.0004207,1.00268254,274.1061,33.7787,52.0523
20083,RADUGA 1-1,EGO,90063.41504102,1 20083U 89048  A 90063.41504102  .00000150 +00000-0 +99999-4 0 02614\,2 20083 000.8261 274.1027 0004166 033.8543 051.9684 01.00268566002568,0.8261,0.0004166,1.00268566,274.1027,33.8543,51.9684
20083,RADUGA 1-1,EGO,90064.41225667,1 20083U 89048  A 90064.41225667  .00000183 +00000-0 +00000-4 0 02623\,2 20083 000.8253 274.2273 0004503 027.8023 057.8624 01.00268987002571,0.8253,0.0004503,1.00268987,274.2273,27.8023,57.8624
20083,RADUGA 1-1,EGO,90065.40963144,1 20083U 89048  A 90065.40963144  .00000184 +00000-0 +00000-4 0 02645\,2 20083 000.8208 274.0643 0004189 033.2185 052.6414 01.00269405002587,0.8208,0.0004189,1.00269405,274.0643,33.2185,52.6414
20083,RADUGA 1-1,EGO,90066.40692402,1 20083U 89048  A 90066.40692402  .00000184 +00000-0 +00000-4 0 02653\,2 20083 000.8184 274.0674 0004189 033.2664 052.5906 01.00269819002591,0.8184,0.0004189,1.00269819,274.0674,33.2664,52.5906
20083,RADUGA 1-1,EGO,90067.40421204,1 20083U 89048  A 90067.40421204  .00000184 +00000-0 +00000-4 0 02665\,2 20083 000.8143 273.9429 0004048 037.8964 048.0684 01.00270048002600,0.8143,0.0004048,1.00270048,273.9429,37.8964,48.0684
20083,RADUGA 1-1,EGO,90068.40155749,1 20083U 89048  A 90068.40155749  .00000150 +00000-0 +99999-4 0 02673\,2 20083 000.8138 274.1194 0004455 028.4732 057.3254 01.00269400002614,0.8138,0.0004455,1.002694,274.1194,28.4732,57.3254
20083,RADUGA 1-1,EGO,90069.39886464,1 20083U 89048  A 90069.39886464  .00000150 +00000-0 +99999-4 0 02688\,2 20083 000.8101 273.9177 0003942 037.8342 048.1822 01.00270817002627,0.8101,0.0003942,1.00270817,273.9177,37.8342,48.1822
20083,RADUGA 1-1,EGO,90070.39614734,1 20083U 89048  A 90070.39614734  .00000184 +00000-0 +00000-4 0 02692\,2 20083 000.8081 274.0281 0003995 037.5598 048.3419 01.00271079002636,0.8081,0.0003995,1.00271079,274.0281,37.5598,48.3419
20083,RADUGA 1-1,EGO,90071.39344720,1 20083U 89048  A 90071.39344720  .00000184 +00000-0 +00000-4 0 02700\,2 20083 000.8050 273.8916 0003868 041.1662 044.8813 01.00271606002642,0.805,0.0003868,1.00271606,273.8916,41.1662,44.8813
20083,RADUGA 1-1,EGO,90071.39345563,1 20083U 89048  A 90071.39345563  .00000184 +00000-0 +00000-4 0 02717\,2 20083 000.8061 274.0896 0003906 037.9369 047.9107 01.00271323002640,0.8061,0.0003906,1.00271323,274.0896,37.9369,47.9107
20083,RADUGA 1-1,EGO,90072.39074521,1 20083U 89048  A 90072.39074521  .00000150 +00000-0 +99999-4 0 02720\,2 20083 000.8039 273.7738 0004114 034.9217 051.2470 01.00271706002654,0.8039,0.0004114,1.00271706,273.7738,34.9217,51.247
20083,RADUGA 1-1,EGO,90073.38801515,1 20083U 89048  A 90073.38801515  .00000184 +00000-0 +00000-4 0 02734\,2 20083 000.8013 274.0892 0003775 040.9881 044.8637 01.00272151002666,0.8013,0.0003775,1.00272151,274.0892,40.9881,44.8637
20083,RADUGA 1-1,EGO,90074.38530924,1 20083U 89048  A 90074.38530924  .00000185 +00000-0 +00000-4 0 02740\,2 20083 000.7988 273.7245 0003889 038.8623 047.3635 01.00272425002671,0.7988,0.0003889,1.00272425,273.7245,38.8623,47.3635
20083,RADUGA 1-1,EGO,90075.38257387,1 20083U 89048  A 90075.38257387  .00000150 +00000-0 +99999-4 0 02758\,2 20083 000.7964 273.7665 0004086 036.0442 050.1454 01.00272985002683,0.7964,0.0004086,1.00272985,273.7665,36.0442,50.1454
20083,RADUGA 1-1,EGO,90076.37981215,1 20083U 89048  A 90076.37981215  .00000149 +00000-0 +99999-4 0 02761\,2 20083 000.7941 273.7391 0004035 036.5516 049.6591 01.00273402002696,0.7941,0.0004035,1.00273402,273.7391,36.5516,49.6591
20083,RADUGA 1-1,EGO,90077.37706755,1 20083U 89048  A 90077.37706755  .00000149 +00000-0 +99999-4 0 02777\,2 20083 000.7912 273.7969 0003956 039.3821 046.7693 01.00273681002708,0.7912,0.0003956,1.00273681,273.7969,39.3821,46.7693
20083,RADUGA 1-1,EGO,90078.37433086,1 20083U 89048  A 90078.37433086  .00000185 +00000-0 +00000-4 0 02788\,2 20083 000.7890 273.7539 0004001 037.9956 048.2093 01.00274272002710,0.789,0.0004001,1.00274272,273.7539,37.9956,48.2093
20083,RADUGA 1-1,EGO,90079.37155619,1 20083U 89048  A 90079.37155619  .00000185 +00000-0 +00000-4 0 02793\,2 20083 000.7857 274.1590 0004067 037.4122 048.3793 01.00274513002724,0.7857,0.0004067,1.00274513,274.159,37.4122,48.3793
20083,RADUGA 1-1,EGO,90080.36879094,1 20083U 89048  A 90080.36879094  .00000149 +00000-0 +99999-4 0 02812\,2 20083 000.7845 273.8029 0004007 037.6186 048.5699 01.00274948002730,0.7845,0.0004007,1.00274948,273.8029,37.6186,48.5699
20083,RADUGA 1-1,EGO,90080.36880099,1 20083U 89048  A 90080.36880099  .00000185 +00000-0 +00000-4 0 02803\,2 20083 000.7845 273.8029 0004007 037.6186 048.5350 01.00275122002739,0.7845,0.0004007,1.00275122,273.8029,37.6186,48.535
20083,RADUGA 1-1,EGO,90081.36592043,1 20083U 89048  A 90081.36592043  .00000149 +00000-0 +99999-4 0 02820\,2 20083 000.7807 274.1439 0003953 040.2162 045.5487 01.00275372002745,0.7807,0.0003953,1.00275372,274.1439,40.2162,45.5487
20083,RADUGA 1-1,EGO,90082.36328306,1 20083U 89048  A 90082.36328306  .00000149 +00000-0 +99999-4 0 02831\,2 20083 000.7774 274.1998 0003992 039.7782 045.9789 01.00275798002754,0.7774,0.0003992,1.00275798,274.1998,39.7782,45.9789
20083,RADUGA 1-1,EGO,90083.36051041,1 20083U 89048  A 90083.36051041  .00000149 +00000-0 +99999-4 0 02842\,2 20083 000.7750 274.1764 0004005 039.2727 046.5093 01.00276237002764,0.775,0.0004005,1.00276237,274.1764,39.2727,46.5093
20083,RADUGA 1-1,EGO,90084.35773230,1 20083U 89048  A 90084.35773230  .00000148 +00000-0 +99999-4 0 02853\,2 20083 000.7744 273.9126 0004009 037.3385 048.7138 01.00276825002777,0.7744,0.0004009,1.00276825,273.9126,37.3385,48.7138
20083,RADUGA 1-1,EGO,90085.35493097,1 20083U 89048  A 90085.35493097  .00000186 +00000-0 +00000-4 0 02862\,2 20083 000.7701 274.2440 0004058 037.6195 048.0942 01.00277210002785,0.7701,0.0004058,1.0027721,274.244,37.6195,48.0942
20083,RADUGA 1-1,EGO,90085.35493128,1 20083U 89048  A 90085.35493128  .00000148 +00000-0 +99999-4 0 02860\,2 20083 000.7701 274.2440 0004058 037.6196 048.0942 01.00277210002786,0.7701,0.0004058,1.0027721,274.244,37.6196,48.0942
20083,RADUGA 1-1,EGO,90086.35214811,1 20083U 89048  A 90086.35214811  .00000186 +00000-0 +00000-4 0 02879\,2 20083 000.7678 274.2248 0004068 037.4338 048.3008 01.00277631002796,0.7678,0.0004068,1.00277631,274.2248,37.4338,48.3008
20083,RADUGA 1-1,EGO,90087.34935637,1 20083U 89048  A 90087.34935637  .00000186 +00000-0 +00000-4 0 02886\,2 20083 000.7671 273.9481 0003989 037.6973 048.3143 01.00278096002800,0.7671,0.0003989,1.00278096,273.9481,37.6973,48.3143
